{"fetched_at":"2026-03-29T02:12:04Z","count":15717,"tles":[{"name":"STARLINK-6343","line1":"1 57362U 23099AL  26084.89592206  .00082773  00000+0  59515-2 0  9990","line2":"2 57362  43.0001 147.9463 0001573 221.2524 138.8200 15.03281800148701","category":"Starlink"}]}