{
  "norad_id": 57362,
  "name": "STARLINK-6343",
  "history": [
    {
      "epoch": "2026-03-25T21:30:07.665984",
      "apogee_km": 557.8757707260256,
      "perigee_km": 555.6940442939231,
      "latitude_deg": 37.785324188677095,
      "longitude_deg": 74.20851775980555,
      "semi_major_axis_km": 6934.9219075099745,
      "eccentricity": 0.0001573,
      "inclination_deg": 43.0001,
      "raan_deg": 147.9463,
      "arg_perigee_deg": 221.2524,
      "mean_anomaly_deg": 138.82,
      "mean_motion_rev_day": 15.032818
    }
  ]
}